IRIDIUM 921             
1 24873U 97034E   24365.24199458  .00236669  00000+0  15426-2 0  9990
2 24873  86.3656 189.0384 0001543  45.6540 314.4859 15.75231788505876
IRIDIUM 26              
1 24903U 97043A   24365.39851266  .00001369  00000+0  45671-3 0  9995
2 24903  86.3979 181.4537 0001807  86.1942 273.9462 14.36878993432973
IRIDIUM 22              
1 24907U 97043E   24365.26010876  .00001208  00000+0  41184-3 0  9996
2 24907  86.3983 184.9016 0002008  90.3730 269.7697 14.35720860432520
DUMMY MASS 1            
1 24925U 97048A   24364.61906236  .00000994  00000+0  10867-3 0  9998
2 24925  86.3353 213.6569 0008144  42.5390 317.6465 14.86701753479930
DUMMY MASS 2            
1 24926U 97048B   24365.02429042  .00001027  00000+0  11305-3 0  9996
2 24926  86.3352 215.0456 0009207  49.4077 310.7948 14.86457279480012
IRIDIUM 29              
1 24944U 97051A   24365.34051609  .00001183  00000+0  39928-3 0  9999
2 24944  86.3963 214.6434 0002199  87.7383 272.4066 14.36187578429250
IRIDIUM 33              
1 24946U 97051C   24364.86247837  .00000666  00000+0  22857-3 0  9995
2 24946  86.3880 214.0925 0005880 272.1514  87.9009 14.34701477428461
IRIDIUM 28              
1 24948U 97051E   24364.86649991  .00000956  00000+0  31541-3 0  9996
2 24948  86.3971 212.4552 0001570  83.5176 276.6200 14.37130333429597
